     2.10           G: GLONASS NAV DATA                     RINEX VERSION / TYPE
teqc  2015Jun23                         20210407 02:51:45UTCPGM / RUN BY / DATE
Linux 2.4.21-27.ELsmp|Opteron|gcc -static|Linux x86_64|=+   COMMENT
  2021     1    27    0.000000000000D+00                    CORR TO SYSTEM TIME
                                                            END OF HEADER
 2 21  1 28  9 45  0.0 4.647057503462D-04 9.094947017729D-13 3.420000000000D+04
    1.878362060547D+04 4.609689712524D-01 3.725290298462D-09 0.000000000000D+00
    1.683721337891D+04 2.333211898804D-01 1.862645149231D-09-4.000000000000D+00
    3.602826660156D+03-3.535898208618D+00-2.793967723846D-09 0.000000000000D+00
21 21  1 28  9 45  0.0-1.835757866502D-04-2.728484105319D-12 3.420000000000D+04
   -1.204828271484D+04 8.866033554077D-01-1.862645149231D-09 0.000000000000D+00
    7.371897460938D+03-2.775002479553D+00-3.725290298462D-09 4.000000000000D+00
    2.125355615234D+04 1.463356018066D+00-9.313225746155D-10 0.000000000000D+00
22 21  1 28  9 45  0.0-9.486917406321D-05-1.818989403546D-12 3.420000000000D+04
   -1.046689843750D+04 5.638055801392D-01 9.313225746155D-10 0.000000000000D+00
    2.131469140625D+04-1.151289939880D+00-2.793967723846D-09-3.000000000000D+00
    9.178050292969D+03 3.322927474976D+00-9.313225746155D-10 0.000000000000D+00
23 21  1 28  9 45  0.0 3.623468801379D-04 1.818989403546D-12 3.420000000000D+04
   -4.207338867188D+02-2.922773361206D-01 4.656612873077D-09 0.000000000000D+00
    2.204844042969D+04 1.745681762695D+00 0.000000000000D+00 3.000000000000D+00
   -1.281687451172D+04 3.012779235840D+00-0.000000000000D+00 0.000000000000D+00
24 21  1 28  9 45  0.0 2.942141145468D-05 9.094947017729D-13 3.483000000000D+04
    6.702824707031D+03-7.681875228882D-01 4.656612873077D-09 0.000000000000D+00
    1.238376269531D+04 2.813923835754D+00 1.862645149231D-09 2.000000000000D+00
   -2.124791552734D+04 1.395049095154D+00-0.000000000000D+00 0.000000000000D+00
12 21  1 28  9 45  0.0 2.003321424127D-04 3.637978807092D-12 3.498000000000D+04
   -3.404252929688D+02-3.014875411987D+00-0.000000000000D+00 0.000000000000D+00
    1.134808251953D+04 8.203077316284D-01-1.862645149231D-09-1.000000000000D+00
    2.286564892578D+04-4.498863220215D-01-1.862645149231D-09 0.000000000000D+00
 1 21  1 28 10 15  0.0 7.413607090712D-05 0.000000000000D+00 3.600000000000D+04
    3.939711914062D+03-2.173153877258D+00 4.656612873077D-09 0.000000000000D+00
    1.508111181641D+04-1.709106445312D+00 0.000000000000D+00 1.000000000000D+00
   -2.019728613281D+04-1.699047088623D+00 0.000000000000D+00 0.000000000000D+00
 2 21  1 28 10 15  0.0 4.647076129913D-04 9.094947017729D-13 3.600000000000D+04
    1.903989648438D+04-2.044801712036D-01 4.656612873077D-09 0.000000000000D+00
    1.668362109375D+04-3.740425109863D-01 9.313225746155D-10-4.000000000000D+00
   -2.819041015625D+03-3.552997589111D+00-1.862645149231D-09 0.000000000000D+00
22 21  1 28 10 15  0.0-9.487383067608D-05-1.818989403546D-12 3.600000000000D+04
   -9.481977050781D+03 4.888172149658D-01-0.000000000000D+00 0.000000000000D+00
    1.848469189453D+04-1.973723411560D+00-2.793967723846D-09-3.000000000000D+00
    1.472474023438D+04 2.799884796143D+00-9.313225746155D-10 0.000000000000D+00
23 21  1 28 10 15  0.0 3.623515367508D-04 1.818989403546D-12 3.600000000000D+04
   -5.749082031250D+02 8.824253082275D-02 3.725290298462D-09 0.000000000000D+00
    2.452936376953D+04 9.802293777466D-01-9.313225746155D-10 3.000000000000D+00
   -6.968332031250D+03 3.443398475647D+00-9.313225746155D-10 0.000000000000D+00
24 21  1 28 10 15  0.0 2.942420542240D-05 9.094947017729D-13 3.600000000000D+04
    5.770189453125D+03-2.787818908691D-01 4.656612873077D-09 0.000000000000D+00
    1.716464892578D+04 2.449805259705D+00 9.313225746155D-10 2.000000000000D+00
   -1.794644628906D+04 2.249325752258D+00-0.000000000000D+00 0.000000000000D+00
12 21  1 28 10 15  0.0 2.003386616707D-04 3.637978807092D-12 3.606000000000D+04
   -5.479981445312D+03-2.652018547058D+00-9.313225746155D-10 0.000000000000D+00
    1.315448291016D+04 1.160781860352D+00-2.793967723846D-09-1.000000000000D+00
    2.118476464844D+04-1.405630111694D+00-1.862645149231D-09 0.000000000000D+00
 1 21  1 28 10 45  0.0 7.413700222969D-05 0.000000000000D+00 3.780000000000D+04
   -4.432055664062D+02-2.664126396179D+00 3.725290298462D-09 0.000000000000D+00
    1.213472851562D+04-1.526565551758D+00-0.000000000000D+00 1.000000000000D+00
   -2.243575781250D+04-7.719860076904D-01 9.313225746155D-10 0.000000000000D+00
 2 21  1 28 10 45  0.0 4.647094756365D-04 9.094947017729D-13 3.780000000000D+04
    1.797473535156D+04-9.903850555420D-01 5.587935447693D-09 0.000000000000D+00
    1.561969531250D+04-7.676715850830D-01 9.313225746155D-10-4.000000000000D+00
   -9.021914062500D+03-3.294078826904D+00-1.862645149231D-09 0.000000000000D+00
12 21  1 28 10 45  0.0 2.003451809287D-04 3.637978807092D-12 3.780000000000D+04
   -9.752484375000D+03-2.064916610718D+00-1.862645149231D-09 0.000000000000D+00
    1.540896435547D+04 1.305804252625D+00-2.793967723846D-09-1.000000000000D+00
    1.787063525391D+04-2.252895355225D+00-0.000000000000D+00 0.000000000000D+00
22 21  1 28 10 45  0.0-9.487848728895D-05-1.818989403546D-12 3.780000000000D+04
   -8.842903808594D+03 1.889638900757D-01-1.862645149231D-09 0.000000000000D+00
    1.431223486328D+04-2.625440597534D+00-2.793967723846D-09-3.000000000000D+00
    1.912712158203D+04 2.059888839722D+00-9.313225746155D-10 0.000000000000D+00
23 21  1 28 10 45  0.0 3.623552620411D-04 1.818989403546D-12 3.780000000000D+04
   -2.387138671875D+02 2.440977096558D-01 1.862645149231D-09 0.000000000000D+00
    2.549863671875D+04 8.444023132324D-02-1.862645149231D-09 3.000000000000D+00
   -5.808374023438D+02 3.607715606689D+00-9.313225746155D-10 0.000000000000D+00
24 21  1 28 10 45  0.0 2.942606806755D-05 9.094947017729D-13 3.780000000000D+04
    5.630496093750D+03 9.686756134033D-02 4.656612873077D-09 0.000000000000D+00
    2.104466308594D+04 1.823066711426D+00-0.000000000000D+00 2.000000000000D+00
   -1.325534326172D+04 2.929059982300D+00-0.000000000000D+00 0.000000000000D+00
 1 21  1 28 11 15  0.0 7.413793355227D-05 0.000000000000D+00 3.960000000000D+04
   -5.509554687500D+03-2.920289039612D+00 1.862645149231D-09 0.000000000000D+00
    9.700715820312D+03-1.152990341187D+00-9.313225746155D-10 1.000000000000D+00
   -2.294046337891D+04 2.148723602295D-01 1.862645149231D-09 0.000000000000D+00
 2 21  1 28 11 15  0.0 4.647113382816D-04 9.094947017729D-13 3.960000000000D+04
    1.546827099609D+04-1.786495208740D+00 4.656612873077D-09 0.000000000000D+00
    1.407413916016D+04-9.059553146362D-01-0.000000000000D+00-4.000000000000D+00
   -1.452360058594D+04-2.778970718384D+00-9.313225746155D-10 0.000000000000D+00
12 21  1 28 11 15  0.0 2.003507688642D-04 3.637978807092D-12 3.960000000000D+04
   -1.283539208984D+04-1.347907066345D+00-2.793967723846D-09 0.000000000000D+00
    1.770384619141D+04 1.199713706970D+00-2.793967723846D-09-1.000000000000D+00
    1.317877246094D+04-2.926556587219D+00 0.000000000000D+00 0.000000000000D+00
23 21  1 28 11 15  0.0 3.623599186540D-04 1.818989403546D-12 3.960000000000D+04
    1.510737304688D+02 1.469240188599D-01 9.313225746155D-10 0.000000000000D+00
    2.482557519531D+04-8.242321014404D-01-2.793967723846D-09 3.000000000000D+00
    5.851579589844D+03 3.492987632751D+00-9.313225746155D-10 0.000000000000D+00
24 21  1 28 11 15  0.0 2.942886203527D-05 1.818989403546D-12 3.960000000000D+04
    6.000903808594D+03 2.770767211914D-01 3.725290298462D-09 0.000000000000D+00
    2.361702783203D+04 1.012839317322D+00-1.862645149231D-09 2.000000000000D+00
   -7.538391601562D+03 3.381787300110D+00-9.313225746155D-10 0.000000000000D+00
22 21  1 28 11 15  0.0-9.488314390182D-05-1.818989403546D-12 3.966000000000D+04
   -8.892163574219D+03-2.607202529907D-01-3.725290298462D-09 0.000000000000D+00
    9.189764648438D+03-3.017412185669D+00-1.862645149231D-09-3.000000000000D+00
    2.204482812500D+04 1.161112785339D+00-9.313225746155D-10 0.000000000000D+00
17 21  1 28 11 15  0.0 3.951536491513D-04 2.728484105319D-12 4.128000000000D+04
    1.074213085938D+04 4.441766738892D-01 4.656612873077D-09 0.000000000000D+00
    1.034873779297D+04 2.805379867554D+00 0.000000000000D+00 4.000000000000D+00
   -2.068727001953D+04 1.629479408264D+00-0.000000000000D+00 0.000000000000D+00
12 21  1 28 11 45  0.0 2.003572881222D-04 3.637978807092D-12 4.140000000000D+04
   -1.459376171875D+04-6.122093200684D-01-2.793967723846D-09 0.000000000000D+00
    1.956830078125D+04 8.291082382202D-01-2.793967723846D-09-1.000000000000D+00
    7.470679199219D+03-3.374719619751D+00 9.313225746155D-10 0.000000000000D+00
 2 21  1 28 11 45  0.0 4.647132009268D-04 9.094947017729D-13 4.140000000000D+04
    1.160703222656D+04-2.476929664612D+00 4.656612873077D-09 0.000000000000D+00
    1.251006152344D+04-7.927379608154D-01-9.313225746155D-10-4.000000000000D+00
   -1.889621533203D+04-2.047784805298D+00 0.000000000000D+00 0.000000000000D+00
17 21  1 28 11 45  0.0 3.951592370868D-04 2.728484105319D-12 4.140000000000D+04
    1.182782373047D+04 7.303705215454D-01 4.656612873077D-09 0.000000000000D+00
    1.490510742188D+04 2.219141006470D+00-9.313225746155D-10 4.000000000000D+00
   -1.699226562500D+04 2.449328422546D+00-0.000000000000D+00 0.000000000000D+00
23 21  1 28 11 45  0.0 3.623645752668D-04 1.818989403546D-12 4.140000000000D+04
    1.484736328125D+02-1.849994659424D-01-9.313225746155D-10 0.000000000000D+00
    2.259576611328D+04-1.626212120056D+00-2.793967723846D-09 3.000000000000D+00
    1.183140185547D+04 3.108106613159D+00-9.313225746155D-10 0.000000000000D+00
24 21  1 28 11 45  0.0 2.943072468042D-05 1.818989403546D-12 4.140000000000D+04
    6.482670410156D+03 2.166194915771D-01 1.862645149231D-09 0.000000000000D+00
    2.464473486328D+04 1.260557174683D-01-2.793967723846D-09 2.000000000000D+00
   -1.238375000000D+03 3.572757720947D+00-9.313225746155D-10 0.000000000000D+00
